#aV2009 11 16  0  0   .00000000      96 DD+AD WGS84 FIT  NGA
## 1558  86400.00000000   900.00000000 55151  .0000000000000
+   31     1  2  3  4  5  6  7  9 10 11 12 13 14 15 16 17 18
+         19 20 21 22 23 24 25 26 27 28 29 30 31 32  0  0  0
+          0  0  0  0  0  0  0  0  0  0  0  0  0  0  0  0  0
+          0  0  0  0  0  0  0  0  0  0  0  0  0  0  0  0  0
+          0  0  0  0  0  0  0  0  0  0  0  0  0  0  0  0  0
++         0  0  0  0  0  0  0  0  0  0  0  0  0  0  0  0  0
++         0  0  0  0  0  0  0  0  0  0  0  0  0  0  0  0  0
++         0  0  0  0  0  0  0  0  0  0  0  0  0  0  0  0  0
++         0  0  0  0  0  0  0  0  0  0  0  0  0  0  0  0  0
++         0  0  0  0  0  0  0  0  0  0  0  0  0  0  0  0  0
%c cc cc ccc ccc cccc cccc cccc cccc ccccc ccccc ccccc ccccc
%c cc cc ccc ccc cccc cccc cccc cccc ccccc ccccc ccccc ccccc
%f  0.0000000  0.000000000  0.00000000000  0.000000000000000
%f  0.0000000  0.000000000  0.00000000000  0.000000000000000
%i    0    0    0    0      0      0      0      0         0
%i    0    0    0    0      0      0      0      0         0
/*      NGA, ST. LOUIS,MO.                                  
/*   EPHEMERIS COMPUTED FROM  3 DAYS OF DATA                
/* CCCCCCCCCCCCCCCCCCCCCCCCCCCCCCCCCCCCCCCCCCCCCCCCCCCCCCCCC
/* CCCCCCCCCCCCCCCCCCCCCCCCCCCCCCCCCCCCCCCCCCCCCCCCCCCCCCCCC
*  2009 11 16  2 45   .00000000                                                 
P  1   5699.616757 -15223.004092 -21087.979043    -65.321747                    
V  1  26525.692228  -1503.866518   8395.754163      -.021592                    
P  2  16888.502107  -1070.566458 -20443.870311    192.181982                    
V  2  -9702.276213  24135.889739  -9737.505810       .043676                    
P  3 -20039.992240  -3610.028005  16881.480944    475.153165                    
V  3 -12876.432138 -18081.624253 -18420.056750       .051548                    
P  4  12030.970546  10730.159878 -21219.035101   -361.203617                    
V  4 -12253.651305  23748.376934   5468.574806      -.182493                    
P  5  26475.088989  -2551.172133    510.744503    -43.879551                    
V  5    887.129951   2684.018134 -31700.305279       .067915                    
P  6 -20258.110951  -7339.397629  15771.856228    261.279606                    
V  6 -10068.251877 -17153.116021 -21054.476292       .019033                    
P  7  -5841.148294  24613.243882   7815.245369      7.644961                    
V  7  -6555.642709   7916.790856 -29941.015105      -.006621                    
P  9  15010.863619 -19829.745918   8584.246857     88.753542                    
V  9  -2678.434147  11736.939089  29596.895763       .021375                    
P 10  26558.687454    790.998023  -3217.379589    -28.403017                    
V 10  -3694.452868   2845.851981 -31082.357085      -.008401                    
P 11 -11500.496469  22346.826293   7772.392092    -29.425960                    
V 11  -2604.649750 -11262.083459  28044.235165      -.020131                    
P 12  19673.426795 -10994.873585 -13897.433639   -189.507879                    
V 12  17878.034940    802.488950  24697.646208       .052484                    
P 13   3341.825587  22694.020976 -13498.328897    306.255904                    
V 13  -9852.549769 -13781.094034 -25860.753266       .001727                    
P 14 -14853.779122 -22054.943590  -1323.469157    -23.964441                    
V 14    609.237267  -2551.627825  32186.563877       .048246                    
P 15  15580.006578  -3954.158848  21186.716350   -320.042269                    
V 15  15049.260662  22231.376137  -6842.043104       .004589                    
P 16 -25634.239981  -3175.392396  -6675.791936     -8.959649                    
V 16   8337.115147  -2677.000534 -30287.257548      -.041898                    
P 17  15692.452985  21483.807036  -1833.872518    102.744863                    
V 17   -919.809950   3484.125131  31477.945996       .036133                    
P 18  -1549.980193 -15719.271262  21610.541764     27.932692                    
V 18  26890.048632  -1337.846121    593.850975       .026695                    
P 19 -14783.359470   4832.191433  21590.282325      1.059975                    
V 19 -13539.576067 -23721.311638  -3694.139882      -.019487                    
P 20 -15093.327886  14012.775337 -16869.294001     67.530835                    
V 20 -21374.043350    125.770970  19425.220695      -.008709                    
P 21   1620.210175 -23415.135182  12097.222738    -21.640507                    
V 21   9820.012577 -12111.706655 -25993.424146      -.023562                    
P 22 -14673.856179 -12743.834511  18301.368120    186.240151                    
V 22  22842.562541  -2870.261580  16388.963844      -.010603                    
P 23  -6877.179090  15145.412777 -20663.835726    385.966683                    
V 23 -15522.417340 -21161.825213 -10653.561161      -.005676                    
P 24  13255.676253 -23153.015853   -913.713063    236.904759                    
V 24   1973.042942   2528.750439 -31327.944945       .030805                    
P 25  -8349.369183  25303.236998   1311.635839     19.903929                    
V 25  -2585.065594    368.331331 -31818.552186       .159546                    
P 26  -9714.855992 -23589.526007   5880.308038      3.344569                    
V 26   6183.012971   5910.504890  31560.960032      -.019918                    
P 27  16560.327356 -16272.696984  13539.748302    100.216873                    
V 27  -4535.880363  15491.083505  25529.586257       .032535                    
P 28  12133.716535  13271.324072  20096.152294    -25.379220                    
V 28 -24360.541823   1976.982747  13402.915249       .002515                    
P 29   -953.906412 -21486.852194 -15519.370389     74.581266                    
V 29  12466.369362  15585.174400 -22173.941835       .029612                    
P 30   7657.989349 -15575.426112 -20476.015394    193.599623                    
V 30  25119.771662  -2053.531633  11227.265584       .032099                    
P 31 -12452.208127  -8166.145829 -21770.651699    -60.981176                    
V 31  12341.054587 -25275.499175   2539.188893       .007881                    
P 32 -22386.683147   7751.868470 -11317.490013    157.104895                    
V 32 -15039.803586  -2799.132866  27235.184279      -.075912                    
EOF
